{"version": 0.6, "generator": "Overpass API 0.7.60.6 e2dc3e5b", "osm3s": {"timestamp_osm_base": "2023-07-02T09:02:01Z", "copyright": "The data included in this document is from www.openstreetmap.org. The data is made available under ODbL."}, "elements": [{"type": "node", "id": 1427265081, "lat": 40.7545379, "lon": -73.9770283, "tags": {"amenity": "bar", "contact:email": "info@vanderbar.com", "name": "Vander Bar", "website": "http://www.vanderbar.com/"}}, {"type": "node", "id": 1427273333, "lat": 40.7526584, "lon": -73.9746018, "tags": {"addr:city": "New York", "addr:housenumber": "141", "addr:postcode": "10017", "addr:street": "East 44th Street", "amenity": "bar", "name": "The Wheeltapper Pub"}}, {"type": "node", "id": 2267540842, "lat": 40.7524774, "lon": -73.984652, "tags": {"addr:housename": "EVR NYC", "addr:postcode": "10018", "addr:street": "54th W 39th St New York, NY", "amenity": "bar", "internet_access": "wlan", "internet_access:fee": "no", "name": "EVR NYC", "payment:bitcoin": "yes", "website": "http://evrnyc.com/", "wheelchair": "yes"}}, {"type": "node", "id": 2407447314, "lat": 40.7499096, "lon": -73.99538, "tags": {"addr:city": "New York", "addr:housenumber": "407", "addr:postcode": "10001", "addr:street": "8th Avenue", "amenity": "bar", "name": "Tempest Bar", "phone": "+1 212-643-1502", "website": "www.tempestbarnyc.com"}}, {"type": "node", "id": 2703424235, "lat": 40.7494986, "lon": -73.993225, "tags": {"addr:housenumber": "220", "addr:postcode": "10001", "addr:street": "West 31st Street", "amenity": "bar", "name": "Tracks"}}, {"type": "node", "id": 2703449561, "lat": 40.74747, "lon": -73.9888573}, {"type": "node", "id": 2703449572, "lat": 40.7475228, "lon": -73.9889826}, {"type": "node", "id": 2703449586, "lat": 40.7476271, "lon": -73.9889069}, {"type": "node", "id": 2703449593, "lat": 40.7476756, "lon": -73.9888713}, {"type": "node", "id": 2709402733, "lat": 40.7542281, "lon": -73.9952785}, {"type": "node", "id": 2709402741, "lat": 40.7542565, "lon": -73.9953454}, {"type": "node", "id": 2709402745, "lat": 40.7542633, "lon": -73.9953615}, {"type": "node", "id": 2709402748, "lat": 40.7542901, "lon": -73.9952327}, {"type": "node", "id": 2709402749, "lat": 40.754295, "lon": -73.9954362}, {"type": "node", "id": 2709402768, "lat": 40.7543571, "lon": -73.9953907}, {"type": "node", "id": 2709702424, "lat": 40.7523822, "lon": -73.9893949, "tags": {"addr:city": "New York", "addr:housenumber": "485", "addr:postcode": "10018", "addr:state": "NY", "addr:street": "7th Avenue", "amenity": "bar", "min_age": "21", "name": "Magic Hour", "opening_hours": "Mo-Th 16:00-02:00, Fr 16:00-04:00, Sa 11:30-04:00, Su 11:30-23:00"}}, {"type": "node", "id": 3246839596, "lat": 40.7493007, "lon": -73.9941316, "tags": {"addr:housenumber": "247", "addr:street": "West 30th Street", "amenity": "bar", "food": "yes", "name": "American Whiskey", "whisky": "yes"}}, {"type": "node", "id": 3526528960, "lat": 40.7543853, "lon": -73.9921719, "tags": {"addr:city": "New York", "addr:housenumber": "543", "addr:postcode": "10018", "addr:state": "NY", "addr:street": "8th Avenue", "amenity": "bar", "name": "Distinguished Wakamba Lounge", "phone": "+1-212-564-2042"}}, {"type": "node", "id": 3618193491, "lat": 40.7493147, "lon": -73.9765665, "tags": {"amenity": "bar", "name": "POD 39 Rooftop"}}, {"type": "node", "id": 3822484904, "lat": 40.7540893, "lon": -73.9904351, "tags": {"addr:city": "New York", "addr:housenumber": "246", "addr:postcode": "10018", "addr:state": "NY", "addr:street": "West 38th Street", "amenity": "bar", "contact:phone": "+1 212 221 1822", "contact:website": "http://www.districttaphouse.com/", "name": "District Tap House"}}, {"type": "node", "id": 4186110812, "lat": 40.7476228, "lon": -73.9887459}, {"type": "node", "id": 4875112182, "lat": 40.7474989, "lon": -73.9869456, "tags": {"addr:housenumber": "22", "addr:level": "6", "addr:postcode": "10001", "addr:street": "West 32nd Street", "amenity": "bar", "contact:email": "reservations@karaokecitynyc.com", "contact:facebook": "karaokecitynyc", "contact:instagram": "KARAOKECITYNYC", "contact:phone": "+1 646-791-8318", "contact:website": "http://www.karaokecitynyc.com/", "name": "Karaoke City", "opening_hours": "13:00-04:00", "reservation": "yes"}}, {"type": "node", "id": 4875134692, "lat": 40.7472064, "lon": -73.986396, "tags": {"access": "yes", "addr:floor": "17", "addr:housenumber": "6", "addr:postcode": "10001", "addr:street": "West 32nd Street", "amenity": "bar", "cocktails": "yes", "contact:email": "cloudsocialnyc@gmail.com", "contact:facebook": "https://www.facebook.com/617005171742589", "contact:instagram": "https://www.instagram.com/cloudsocialnyc/", "contact:phone": "+1-212-904-1092", "contact:twitter": "https://www.twitter.com/CloudSocialNYC", "contact:website": "https://cloudsocialnyc.com", "description": "rooftop bar of the Nyma Hotel", "drink:beer": "draught", "drink:liquor": "yes", "drink:wine": "yes", "happy_hours": "15:00-19:00", "location": "rooftop", "name": "Cloud Social", "opening_hours": "Mo-Su 15:00-24:00", "outdoor_seating": "only", "reservation": "yes", "smoking": "yes", "toilets": "yes", "toilets:unisex": "yes", "wheelchair": "yes"}}, {"type": "node", "id": 5087643578, "lat": 40.7538643, "lon": -73.9919513, "tags": {"addr:housenumber": "520", "addr:street": "8th Avenue", "amenity": "bar", "name": "Houndstooth Pub"}}, {"type": "node", "id": 5215527122, "lat": 40.7512626, "lon": -73.9848169, "tags": {"amenity": "bar", "name": "Top of the strand"}}, {"type": "node", "id": 5319150021, "lat": 40.752605, "lon": -73.9778482, "tags": {"addr:housenumber": "15", "addr:postcode": "10017", "addr:street": "Vanderbilt Avenue", "amenity": "bar", "name": "The Campbell Bar", "opening_hours": "Mo-Su 12:00-02:00", "phone": "2122971781", "website": "http://thecampbellnyc.com", "wikidata": "Q5027988"}}, {"type": "node", "id": 5393321622, "lat": 40.7477356, "lon": -73.9863789, "tags": {"addr:housenumber": "15", "addr:postcode": "10001", "addr:street": "West 32nd Street", "amenity": "bar", "cocktails": "yes", "cuisine": "korean", "drink:beer": "draught; bottled", "drink:soju": "yes", "level": "1", "name": "Pocha 32", "opening_hours": "Su-Th 17:00-02:00; Fr, Sa 17:00-03:00", "payment:visa": "no", "phone": "+1 212-279-1876"}}, {"type": "node", "id": 5612407421, "lat": 40.7481126, "lon": -73.9911219, "tags": {"amenity": "bar", "name": "Deweys pub"}}, {"type": "node", "id": 5752764087, "lat": 40.7541745, "lon": -73.9888207, "tags": {"addr:housenumber": "200", "addr:street": "West 39th Street", "amenity": "bar", "cocktails": "yes", "drink:beer": "yes", "drink:liquor": "yes", "drink:wine": "yes", "email": "info@theskylarknyc.com", "level": "29", "name": "The Skylark", "opening_hours": "We 16:30-01:00; Th, Fr 16:30-01:30; Mo, Tu 16:30-00:00", "phone": "+1-212-257-4577", "reservation": "yes", "toilets": "yes", "website": "https://theskylarknyc.com/", "wheelchair": "yes"}}, {"type": "node", "id": 5815748398, "lat": 40.7472543, "lon": -73.9918207, "tags": {"addr:housenumber": "138", "addr:street": "West 29th Street", "amenity": "bar", "cocktails": "yes", "drink:beer": "yes", "drink:liquor": "yes", "drink:wine": "yes", "name": "Pioneers Bar NYC", "opening_hours": "Su 13:00-01:00; Mo-Sa 13:00-02:00", "phone": "+1-212-714-2222", "sport": "billiards;pinball", "toilets": "yes", "website": "http://pioneersbar.com/", "wheelchair": "yes"}}, {"type": "node", "id": 5815748399, "lat": 40.7499483, "lon": -73.9898031, "tags": {"addr:housenumber": "133", "addr:street": "West 33rd Street", "amenity": "bar", "branch": "Flagship", "cocktails": "yes", "drink:beer": "yes", "drink:liquor": "yes", "drink:wine": "yes", "name": "Stout NYC", "opening_hours": "Th-Su 11:30-01:45; Mo-We 11:30-23:45", "outdoor_seating": "yes", "phone": "+1-212-629-6191", "reservation": "yes", "toilets": "yes", "website": "http://msg.stoutnyc.com/"}}, {"type": "node", "id": 5816354729, "lat": 40.7536244, "lon": -73.9913698, "tags": {"addr:housenumber": "252", "addr:street": "West 37th Street", "amenity": "bar", "cocktails": "yes", "drink:beer": "yes", "drink:liquor": "yes", "drink:wine": "yes", "email": "jacqueline@districtsocialnyc.com", "name": "District Social", "opening_hours": "Mo-We, Sa 11:30-02:00; Th, Fr 11:30-04:00; Su 12:00-02:00", "phone": "+1-212-994-9599", "reservation": "yes", "toilets": "yes", "website": "https://districtsocialnyc.com/"}}, {"type": "node", "id": 5816447409, "lat": 40.7539106, "lon": -73.991226, "tags": {"addr:housenumber": "247", "addr:street": "West 37th Street", "amenity": "bar", "cocktails": "yes", "drink:beer": "yes", "drink:liquor": "yes", "drink:wine": "yes", "email": "info@stitchnyc.com", "fax": "+1-212-852-4815", "happy_hours": "yes", "name": "Stitch Bar & Lounge", "opening_hours": "Mo-Fr 11:00-02:00; Sa 17:00-00:00", "payment:debit_cards": "yes", "phone": "+1-212-852-4826", "reservation": "yes", "toilets": "yes", "website": "https://stitchnyc.com/", "wheelchair": "yes"}}, {"type": "node", "id": 6157219531, "lat": 40.7531008, "lon": -73.9930272, "tags": {"addr:housenumber": "505", "addr:street": "8th Avenue", "amenity": "bar", "name": "Tailor Public House", "phone": "+1-646-494-4900", "wheelchair": "limited"}}, {"type": "node", "id": 6178461394, "lat": 40.7503212, "lon": -73.9917437, "tags": {"addr:city": "New York", "addr:housenumber": "2", "addr:postcode": "10121", "addr:state": "NY", "addr:street": "Pennsylvania Plaza", "amenity": "bar", "brewery": "yes", "name": "The Pennsy Bar", "opening_hours": "Mo-Su 11:00-02:00", "website": "http://www.thepennsy.nyc/pennsy-bar-nyc/"}}, {"type": "node", "id": 6233604762, "lat": 40.7476372, "lon": -73.98878, "tags": {"access": "yes", "addr:housenumber": "54", "addr:street": "West 31st Street", "door": "hinged", "entrance": "main", "level": "0", "wheelchair": "yes"}}, {"type": "node", "id": 6233604763, "lat": 40.7476264, "lon": -73.9887544, "tags": {"door": "hinged", "entrance": "yes", "level": "0"}}, {"type": "node", "id": 6233604764, "lat": 40.7476727, "lon": -73.9888645, "tags": {"door": "hinged", "entrance": "yes", "level": "0"}}, {"type": "node", "id": 6234654089, "lat": 40.7477867, "lon": -73.9874231, "tags": {"addr:housenumber": "38", "addr:postcode": "10001", "addr:street": "West 32nd Street", "amenity": "bar", "cocktails": "yes", "contact:instagram": "https://www.instagram.com/5barkaraoke", "drink:beer": "yes", "drink:soju": "yes", "drink:wine": "yes", "happy_hours": "Su-Th 14:00-20:00", "karaoke": "yes", "level": "4", "name": "5 Bar Karaoke Lounge", "opening_hours": "Su-Th 14:00-03:00; Fr,Sa 14:00-04:00", "phone": "+1 212-594-6644", "website": "https://www.5barkaraoke.com"}}, {"type": "node", "id": 6375303885, "lat": 40.7464637, "lon": -73.9909625, "tags": {"addr:street": "West 28th Street", "amenity": "bar", "name": "The Fleur Room", "website": "http://moxy-hotels.marriott.com/nyc/chelsea/the-fleur-room/"}}, {"type": "node", "id": 6407832772, "lat": 40.7458591, "lon": -73.9936087, "tags": {"amenity": "bar", "cocktails": "yes", "cuisine": "pizza;snack", "description": "piano bar featuring live-accompaniment karaoke", "drink:beer": "draught", "drink:liquor": "yes", "drink:wine": "yes", "happy_hours": "Mo-Fr 17:00-19:00", "live_music": "yes", "name": "Sid Gold's Request Room", "phone": "+1-212-229-1948", "website": "https://sidgolds.com"}}, {"type": "node", "id": 6507019903, "lat": 40.7505485, "lon": -73.9905872, "tags": {"addr:city": "New York", "addr:housenumber": "431", "addr:postcode": "10001", "addr:state": "NY", "addr:street": "7th Avenue", "amenity": "bar", "name": "On Now Lounge"}}, {"type": "node", "id": 6597932385, "lat": 40.7522458, "lon": -73.9853353, "tags": {"amenity": "bar", "name": "refinery rooftop"}}, {"type": "node", "id": 6943977885, "lat": 40.7503744, "lon": -73.9867836, "tags": {"amenity": "bar", "name": "monarch rooftop bar piso 18"}}, {"type": "node", "id": 7047832885, "lat": 40.7519614, "lon": -73.9847937, "tags": {"addr:postcode": "10018", "amenity": "bar", "name": "Spyglass Rooftop"}}, {"type": "node", "id": 10000660272, "lat": 40.7517188, "lon": -73.9957296, "tags": {"air_conditioning": "yes", "amenity": "bar", "brewery": "yes", "check_date": "2023-04-07", "internet_access": "no", "level": "0", "microbrewery": "no", "name": "The Bar", "outdoor_seating": "no", "payment:american_express": "yes", "payment:credit_cards": "yes", "payment:discover_card": "yes", "payment:mastercard": "yes", "payment:visa": "yes", "smoking": "no", "wheelchair": "limited"}}, {"type": "way", "id": 265273018, "nodes": [2709402733, 2709402741, 2709402745, 2709402749, 2709402768, 2709402748, 2709402733], "tags": {"addr:housenumber": "458", "addr:postcode": "10018", "addr:street": "9th Avenue", "amenity": "bar", "building": "yes", "cocktails": "yes", "cuisine": "pizza;snack", "description": "Bar featuring a \"rage room\" where patrons smash things with bats", "drink:beer": "draught", "drink:liquor": "yes", "drink:wine": "yes", "email": "info@wreckingclub.com", "facebook": "BreakBarNYC", "height": "5.0", "instagram": "TheBreakBar", "name": "Break Bar", "nycdoitt:bin": "1082252", "opening_hours": "Mo-Th 3:15-23:00; Fr-Su 1:15-23:00", "outdoor_seating": "yes", "phone": "+1 212-933-0929", "sport": "rage_room", "twitter": "thebreakbar", "website": "https://www.breakbarnyc.com"}}, {"type": "way", "id": 665897391, "nodes": [4186110812, 2703449561, 2703449572, 2703449586, 2703449593, 6233604764, 6233604762, 6233604763, 4186110812], "tags": {"addr:city": "New York", "addr:housenumber": "54", "addr:postcode": "10001", "addr:street": "West 31st Street", "amenity": "bar", "cocktails": "yes", "contact:facebook": "http://www.facebook.com/oreillyspubnyc", "cuisine": "pub", "drink:beer": "yes", "drink:liquor": "yes", "drink:wine": "yes", "email": "info@oreillyspubnyc.com", "fax": "+1 212-689-5788", "name": "O'Reilly's Pub", "opening_hours": "11:00-02:00", "opening_hours:kitchen": "11:00-23:30", "outdoor_seating": "roof", "phone": "+1 212-684-4244", "toilets": "yes", "website": "https://www.oreillyspubnyc.com", "wheelchair": "limited"}}]}